FLOCK 2P-4              
1 41611U 16040N   17188.47120844  .00001875  00000-0  84427-4 0  9999
2 41611  97.4605 251.1471 0011737  21.4923 338.6804 15.22278894 57751
FLOCK 2P-10             
1 41612U 16040P   17188.44942184  .00002591  00000-0  11550-3 0  9998
2 41612  97.4612 251.1983 0011463  22.0491 338.1236 15.22272531 57757
FLOCK 2P-8              
1 41613U 16040Q   17188.46575481  .00001799  00000-0  81169-4 0  9996
2 41613  97.4607 251.1588 0011593  21.0124 339.1586 15.22252624 57759
FLOCK 2P-12             
1 41614U 16040R   17188.16420351  .00001171  00000-0  53920-4 0  9997
2 41614  97.4616 250.9972 0011291  22.1883 337.9839 15.22269005 57717
FLOCK 2P-7              
1 41615U 16040S   17188.46029694  .00001890  00000-0  85120-4 0  9991
2 41615  97.4603 251.1531 0011508  22.3922 337.7814 15.22266534 57754
FLOCK 2P-5              
1 41616U 16040T   17188.43839928  .00001396  00000-0  63658-4 0  9991
2 41616  97.4617 251.2425 0011268  20.8414 339.3279 15.22270195 57734
FLOCK 2P-1              
1 41617U 16040U   17188.49260804  .00001433  00000-0  65287-4 0  9991
2 41617  97.4619 251.3229 0011130  21.6023 338.5680 15.22262136 57769
FLOCK 2P-3              
1 41618U 16040V   17188.38898336  .00000903  00000-0  42256-4 0  9999
2 41618  97.4616 251.1498 0011158  21.8324 338.3386 15.22262909 57746
BEESAT-4                
1 41619U 16040W   17188.12811736  .00001070  00000-0  51623-4 0  9995
2 41619  97.4612 250.3226 0012104   7.0654 353.0749 15.20802633 45620
3CAT-2                  
1 41732U 16051B   17188.53265225  .00000930  00000-0  40175-4 0  9998
2 41732  97.3759 105.2205 0013077 195.6016 283.6194 15.24923467 49638
FLOCK 2E'-13            
1 41761U 98067KH  17188.50977094  .00005924  00000-0  75034-4 0  9998
2 41761  51.6388 288.3227 0006584 340.5510  19.5232 15.61063980 46084
FLOCK 2E'-14            
1 41762U 98067KJ  17188.49287364  .00006088  00000-0  76420-4 0  9993
2 41762  51.6400 288.2349 0006549 340.5125  19.5618 15.61244021 46082
FLOCK 2E'-16            
1 41763U 98067KK  17188.52232513  .00006246  00000-0  76858-4 0  9995
2 41763  51.6400 287.6773 0005928 350.5875   9.5006 15.61722357 46050
FLOCK 2E'-15            
1 41764U 98067KL  17188.52217167  .00005436  00000-0  69634-4 0  9998
2 41764  51.6398 288.4253 0006171 347.5491  12.5349 15.60961939 46043
FLOCK 2E'-18            
1 41769U 98067KM  17188.57132010  .00005147  00000-0  66152-4 0  9992
2 41769  51.6399 287.9976 0005331   9.6678 350.4417 15.61008527 46052
FLOCK 2E'-17            
1 41776U 98067KN  17188.49903128  .00005595  00000-0  71235-4 0  9992
2 41776  51.6407 288.2838 0005713   9.2801 350.8297 15.61057311 46032
FLOCK 2E'-19            
1 41777U 98067KP  17188.51845490  .00008082  00000-0  90862-4 0  9994
2 41777  51.6383 285.3718 0004833   9.3153 350.7930 15.63609193 46030
FLOCK 2E'-20            
1 41782U 98067KQ  17188.52705327  .00007258  00000-0  84550-4 0  9996
2 41782  51.6395 286.2056 0004703   4.6535 355.4502 15.62871707 45893
CANX-7                  
1 41788U 16059F   17188.55998187  .00005669  00000-0  10642-2 0  9997
2 41788  98.1773 250.1959 0038056 107.4528 253.0856 14.64625472 41572
ALSAT 1N                
1 41789U 16059G   17188.44777129  .00000058  00000-0  20289-4 0  9994
2 41789  98.1662 250.1505 0029697  91.1930 269.2675 14.64054794 41575
RAVAN                   
1 41849U 16067B   17188.20993204  .00000534  00000-0  51721-4 0  9992
2 41849  97.9480 266.6132 0007812 226.4353 133.6220 14.97007151 35509
CELTEE 1                
1 41850U 16067C   17188.18775406 -.00000217  00000-0 -13681-4 0  9996
2 41850  97.9486 266.4857 0007640 225.7406 134.3189 14.96566359 35498
OPTICUBE 04             
1 41851U 16067D   17188.46171324 -.00000452  00000-0 -34449-4 0  9993
2 41851  97.9482 266.7490 0007852 227.0191 133.0372 14.96494417 35532
AEROCUBE 8D             
1 41852U 16067E   17188.51341504  .00000244  00000-0  26987-4 0  9994
2 41852  97.9497 266.7106 0008517 224.9366 135.1166 14.96211530 35539
AEROCUBE 8C             
1 41853U 16067F   17188.45237058 -.00000061  00000-0 -18325-7 0  9995
2 41853  97.9495 266.6337 0008884 227.2339 132.8135 14.96174410 35520
PROMETHEUS 2-1          
1 41854U 16067G   17188.40052347 -.00000088  00000-0 -24148-5 0  9994
2 41854  97.9494 266.5496 0009480 227.9218 132.1197 14.96128862 35511
PROMETHEUS 2-3          
1 41855U 16067H   17188.46890085 -.00000027  00000-0  29974-5 0  9994
2 41855  97.9494 266.6185 0009669 228.0385 132.0013 14.96120006 35523
LEMUR-2-XIAOQING        
1 41871U 16062C   17188.48436551  .00002525  00000-0  12208-3 0  9997
2 41871  51.6443 350.5561 0004440 305.5375 159.9967 15.22363183 34031
LEMUR-2-SOKOLSKY        
1 41872U 16062D   17188.47011376  .00001924  00000-0  96392-4 0  9990
2 41872  51.6309 350.4502 0003023 312.1089 150.0611 15.22372592 34020
LEMUR-2-ANUBHAVTHAKUR   
1 41873U 16062E   17188.46027661  .00001272  00000-0  70150-4 0  9994
2 41873  51.6368 351.3002 0005823 319.9044  70.9887 15.21548183 34000
LEMUR-2-WINGO           
1 41874U 16062F   17188.49737428  .00001204  00000-0  66064-4 0  9991
2 41874  51.6487 350.6776 0005903 298.2117 163.7632 15.22149457 34025
STARS-C                 
1 41895U 98067KR  17188.49245825  .00018835  00000-0  21314-3 0  9990
2 41895  51.6386 291.2131 0004819  23.6184 336.5030 15.62457845 31161
TANCREDO-1              
1 41931U 98067KT  17188.55410817  .00037329  00000-0  31689-3 0  9998
2 41931  51.6368 287.0954 0007317 344.8737  15.2040 15.69233829 26792
ITF-2                   
1 41932U 98067KU  17188.52192102  .00008028  00000-0  10491-3 0  9992
2 41932  51.6416 292.9316 0005699 347.2622  12.8226 15.59648095 26710
WASEDA-SAT3             
1 41933U 98067KV  17188.55491413  .00009842  00000-0  12428-3 0  9990
2 41933  51.6398 292.3870 0005712 349.3666  10.7205 15.60255071 26721
AOBA-VELOX 3            
1 41935U 98067KX  17188.50797603  .00010171  00000-0  12944-3 0  9997
2 41935  51.6411 292.8342 0005231 350.6761   9.4135 15.60006840 26810
TUPOD                   
1 41936U 98067KY  17188.51676273  .00077109  00000-0  49308-3 0  9996
2 41936  51.6336 284.5737 0008053 341.9578  18.1135 15.75599454 26302
OSNSAT                  
1 41939U 98067KZ  17188.51602775  .00021776  00000-0  22665-3 0  9991
2 41939  51.6388 289.8637 0006983 347.5797  12.5025 15.64483330 26101
FLOCK 3P-8              
1 41951U 17008D   17188.54679679  .00002120  00000-0  94480-4 0  9998
2 41951  97.4945 249.7997 0010171 117.0253 243.2022 15.22501182 21630
FLOCK 3P-51             
1 41952U 17008E   17188.45413224  .00001828  00000-0  81616-4 0  9992
2 41952  97.4951 249.7812 0009760 132.9092 227.2965 15.22617693 21625
FLOCK 3P-37             
1 41953U 17008F   17188.55773623  .00001938  00000-0  85485-4 0  9996
2 41953  97.4948 249.9432 0009031 136.3508 223.8444 15.22977117 21649
INS-1B                  
1 41954U 17008G   17188.45694669  .00001211  00000-0  56443-4 0  9994
2 41954  97.4924 249.5748 0011281 117.2482 242.9904 15.21767886 21551
FLOCK 3P-19             
1 41955U 17008H   17188.56078828  .00002650  00000-0  11755-3 0  9994
2 41955  97.4941 249.7737 0011107 117.4753 242.7613 15.22422932 21557
FLOCK 3P-24             
1 41956U 17008J   17188.55985211  .00002721  00000-0  12052-3 0  9997
2 41956  97.4940 249.7754 0011052 115.1688 245.0696 15.22458752 21632
FLOCK 3P-18             
1 41957U 17008K   17188.56147711  .00002273  00000-0  10117-3 0  9996
2 41957  97.4941 249.7763 0011014 116.5482 243.6884 15.22464854 21474
FLOCK 3P-22             
1 41958U 17008L   17188.56323453  .00002605  00000-0  11578-3 0  9997
2 41958  97.4942 249.7742 0010946 116.2267 244.0096 15.22373249 21460
FLOCK 3P-21             
1 41959U 17008M   17188.55377704  .00002524  00000-0  11209-3 0  9996
2 41959  97.4947 249.7933 0010716 118.1509 242.0811 15.22434702 21479
FLOCK 3P-28             
1 41960U 17008N   17188.55224387  .00001790  00000-0  80331-4 0  9993
2 41960  97.4945 249.7928 0010509 116.5126 243.7189 15.22474861 21555
FLOCK 3P-26             
1 41961U 17008P   17188.55972658  .00002551  00000-0  11339-3 0  9992
2 41961  97.4944 249.7817 0010775 116.1764 244.0582 15.22400844 21473
FLOCK 3P-17             
1 41962U 17008Q   17188.54316335  .00002033  00000-0  90618-4 0  9999
2 41962  97.4945 249.8043 0010438 118.3011 241.9280 15.22539205 21422
FLOCK 3P-27             
1 41963U 17008R   17188.56476809  .00002666  00000-0  11863-3 0  9991
2 41963  97.4945 249.7772 0010900 116.4488 243.7867 15.22321672 21475
FLOCK 3P-25             
1 41964U 17008S   17188.55593676  .00001975  00000-0  88429-4 0  9998
2 41964  97.4943 249.7849 0010494 116.7887 243.4424 15.22429948 21452
FLOCK 3P-4              
1 41965U 17008T   17188.55060267  .00002138  00000-0  95328-4 0  9992
2 41965  97.4946 249.7966 0010412 117.7559 242.4735 15.22480579 21555
FLOCK 3P-2              
1 41966U 17008U   17188.41915350  .00003186  00000-0  14054-3 0  9990
2 41966  97.4948 249.6682 0010313 116.7763 243.4530 15.22468350 21454
FLOCK 3P-1              
1 41967U 17008V   17188.55584674  .00001988  00000-0  89283-4 0  9992
2 41967  97.4949 249.7941 0010316 117.1815 243.0474 15.22313865 21476
FLOCK 3P-3              
1 41968U 17008W   17188.55271728  .00002179  00000-0  97143-4 0  9993
2 41968  97.4945 249.7932 0010419 116.5717 243.6588 15.22451035 21554
FLOCK 3P-6              
1 41969U 17008X   17188.54932359  .00002592  00000-0  11488-3 0  9993
2 41969  97.4948 249.8014 0010204 116.4191 243.8093 15.22484769 21460
FLOCK 3P-7              
1 41970U 17008Y   17188.60077027  .00002433  00000-0  10763-3 0  9993
2 41970  97.4949 249.8867 0010230 118.9830 241.2433 15.22610052 21483
FLOCK 3P-5              
1 41971U 17008Z   17188.54437407  .00001926  00000-0  86108-4 0  9992
2 41971  97.4949 249.8113 0010141 118.3622 241.8638 15.22500295 21404
